SL-14 R/B               
1 16792U 86046B   26053.11352538  .00000367  00000+0  39561-4 0  9996
2 16792  82.4793  94.9033 0021566 280.0786  79.7997 14.85573632124097
SL-14 R/B               
1 16882U 86055B   26053.24327664  .00000500  00000+0  54792-4 0  9994
2 16882  82.5228 141.1896 0019510  27.6189  27.8990 14.85626421117073
AJISAI (EGS)            
1 16908U 86061A   26053.29148721 -.00000082  00000+0  10512-3 0  9997
2 16908  50.0086 140.6978 0011230 247.3191 159.2699 12.44515406466081
COSMOS 1812             
1 17295U 87003A   26053.25023510  .00583917  16312-3  83304-3 0  9996
2 17295  82.4739 213.2809 0004644 293.9851  66.0943 16.05542037141994
SL-14 R/B               
1 17567U 87024B   26053.08528279  .00000378  00000+0  40277-4 0  9995
2 17567  82.5269 107.4323 0017069 315.9495  44.0360 14.86115965 85814
COSMOS 1833             
1 17589U 87027A   26053.14499552 -.00000078  00000+0 -16158-4 0  9990
2 17589  70.9234 358.6862 0024810 235.8586 124.0182 14.13057177  8122
SL-16 R/B               
1 17590U 87027B   26053.16370585  .00000207  00000+0  12646-3 0  9997
2 17590  71.0037 309.2131 0004226 171.5844 188.5351 14.17166000 13141
SL-14 R/B               
1 17912U 87038B   26053.13958142  .00000375  00000+0  40675-4 0  9995
2 17912  82.5029 311.4549 0018314 212.4140 147.5953 14.85353447 76928
COSMOS 1844             
1 17973U 87041A   26053.26737406  .00000156  00000+0  10617-3 0  9997
2 17973  70.8985  66.7057 0029242  42.0600 318.2759 14.14551793  1408
SL-14 R/B               
1 18153U 87055B   26053.25396889  .00000575  00000+0  63340-4 0  9995
2 18153  82.5017   3.5751 0022177  66.2509 294.1030 14.85608267 67640
COSMOS 1867             
1 18187U 87060A   26053.28129902 -.00000040  00000+0  22502-4 0  9994
2 18187  65.0127 349.8542 0014279 277.8758  82.0705 14.31500346 17737
SL-14 R/B               
1 18749U 88001B   26052.50723552  .00000484  00000+0  53239-4 0  9991
2 18749  82.5120 210.5785 0016720 293.9076  66.0388 14.85505672 39623
