CCSDS_OMM_VERS = 2.0
CREATION_DATE  = 
ORIGINATOR     = 

OBJECT_NAME    = SL-14 R/B
OBJECT_ID      = 1986-046B
CENTER_NAME    = EARTH
REF_FRAME      = TEME
TIME_SYSTEM    = UTC
MEAN_ELEMENT_THEORY = SGP/SGP4

EPOCH          = 2026-02-22T02:43:28.592832
MEAN_MOTION    = 14.85573632
ECCENTRICITY   = .0021566
INCLINATION    = 82.4793
RA_OF_ASC_NODE = 94.9033
ARG_OF_PERICENTER = 280.0786
MEAN_ANOMALY   = 79.7997

EPHEMERIS_TYPE = 0
CLASSIFICATION_TYPE = U
NORAD_CAT_ID   = 16792
ELEMENT_SET_NO = 999
REV_AT_EPOCH   = 12409
BSTAR          = .39561E-4
MEAN_MOTION_DOT = .367E-5
MEAN_MOTION_DDOT = 0

CCSDS_OMM_VERS = 2.0
CREATION_DATE  = 
ORIGINATOR     = 

OBJECT_NAME    = SL-14 R/B
OBJECT_ID      = 1986-055B
CENTER_NAME    = EARTH
REF_FRAME      = TEME
TIME_SYSTEM    = UTC
MEAN_ELEMENT_THEORY = SGP/SGP4

EPOCH          = 2026-02-22T05:50:19.101696
MEAN_MOTION    = 14.85626421
ECCENTRICITY   = .001951
INCLINATION    = 82.5228
RA_OF_ASC_NODE = 141.1896
ARG_OF_PERICENTER = 27.6189
MEAN_ANOMALY   = 27.8990

EPHEMERIS_TYPE = 0
CLASSIFICATION_TYPE = U
NORAD_CAT_ID   = 16882
ELEMENT_SET_NO = 999
REV_AT_EPOCH   = 11707
BSTAR          = .54792E-4
MEAN_MOTION_DOT = .5E-5
MEAN_MOTION_DDOT = 0

CCSDS_OMM_VERS = 2.0
CREATION_DATE  = 
ORIGINATOR     = 

OBJECT_NAME    = AJISAI (EGS)
OBJECT_ID      = 1986-061A
CENTER_NAME    = EARTH
REF_FRAME      = TEME
TIME_SYSTEM    = UTC
MEAN_ELEMENT_THEORY = SGP/SGP4

EPOCH          = 2026-02-22T06:59:44.494944
MEAN_MOTION    = 12.44515406
ECCENTRICITY   = .001123
INCLINATION    = 50.0086
RA_OF_ASC_NODE = 140.6978
ARG_OF_PERICENTER = 247.3191
MEAN_ANOMALY   = 159.2699

EPHEMERIS_TYPE = 0
CLASSIFICATION_TYPE = U
NORAD_CAT_ID   = 16908
ELEMENT_SET_NO = 999
REV_AT_EPOCH   = 46608
BSTAR          = .10512E-3
MEAN_MOTION_DOT = -.82E-6
MEAN_MOTION_DDOT = 0

CCSDS_OMM_VERS = 2.0
CREATION_DATE  = 
ORIGINATOR     = 

OBJECT_NAME    = COSMOS 1812
OBJECT_ID      = 1987-003A
CENTER_NAME    = EARTH
REF_FRAME      = TEME
TIME_SYSTEM    = UTC
MEAN_ELEMENT_THEORY = SGP/SGP4

EPOCH          = 2026-02-22T06:00:20.312640
MEAN_MOTION    = 16.05542037
ECCENTRICITY   = .0004644
INCLINATION    = 82.4739
RA_OF_ASC_NODE = 213.2809
ARG_OF_PERICENTER = 293.9851
MEAN_ANOMALY   = 66.0943

EPHEMERIS_TYPE = 0
CLASSIFICATION_TYPE = U
NORAD_CAT_ID   = 17295
ELEMENT_SET_NO = 999
REV_AT_EPOCH   = 14199
BSTAR          = .83304E-3
MEAN_MOTION_DOT = .583917E-2
MEAN_MOTION_DDOT = .16312E-3

CCSDS_OMM_VERS = 2.0
CREATION_DATE  = 
ORIGINATOR     = 

OBJECT_NAME    = SL-14 R/B
OBJECT_ID      = 1987-024B
CENTER_NAME    = EARTH
REF_FRAME      = TEME
TIME_SYSTEM    = UTC
MEAN_ELEMENT_THEORY = SGP/SGP4

EPOCH          = 2026-02-22T02:02:48.433056
MEAN_MOTION    = 14.86115965
ECCENTRICITY   = .0017069
INCLINATION    = 82.5269
RA_OF_ASC_NODE = 107.4323
ARG_OF_PERICENTER = 315.9495
MEAN_ANOMALY   = 44.0360

EPHEMERIS_TYPE = 0
CLASSIFICATION_TYPE = U
NORAD_CAT_ID   = 17567
ELEMENT_SET_NO = 999
REV_AT_EPOCH   = 8581
BSTAR          = .40277E-4
MEAN_MOTION_DOT = .378E-5
MEAN_MOTION_DDOT = 0

CCSDS_OMM_VERS = 2.0
CREATION_DATE  = 
ORIGINATOR     = 

OBJECT_NAME    = COSMOS 1833
OBJECT_ID      = 1987-027A
CENTER_NAME    = EARTH
REF_FRAME      = TEME
TIME_SYSTEM    = UTC
MEAN_ELEMENT_THEORY = SGP/SGP4

EPOCH          = 2026-02-22T03:28:47.612928
MEAN_MOTION    = 14.13057177
ECCENTRICITY   = .002481
INCLINATION    = 70.9234
RA_OF_ASC_NODE = 358.6862
ARG_OF_PERICENTER = 235.8586
MEAN_ANOMALY   = 124.0182

EPHEMERIS_TYPE = 0
CLASSIFICATION_TYPE = U
NORAD_CAT_ID   = 17589
ELEMENT_SET_NO = 999
REV_AT_EPOCH   = 812
BSTAR          = -.16158E-4
MEAN_MOTION_DOT = -.78E-6
MEAN_MOTION_DDOT = 0

CCSDS_OMM_VERS = 2.0
CREATION_DATE  = 
ORIGINATOR     = 

OBJECT_NAME    = SL-16 R/B
OBJECT_ID      = 1987-027B
CENTER_NAME    = EARTH
REF_FRAME      = TEME
TIME_SYSTEM    = UTC
MEAN_ELEMENT_THEORY = SGP/SGP4

EPOCH          = 2026-02-22T03:55:44.185440
MEAN_MOTION    = 14.17166000
ECCENTRICITY   = .0004226
INCLINATION    = 71.0037
RA_OF_ASC_NODE = 309.2131
ARG_OF_PERICENTER = 171.5844
MEAN_ANOMALY   = 188.5351

EPHEMERIS_TYPE = 0
CLASSIFICATION_TYPE = U
NORAD_CAT_ID   = 17590
ELEMENT_SET_NO = 999
REV_AT_EPOCH   = 1314
BSTAR          = .12646E-3
MEAN_MOTION_DOT = .207E-5
MEAN_MOTION_DDOT = 0

CCSDS_OMM_VERS = 2.0
CREATION_DATE  = 
ORIGINATOR     = 

OBJECT_NAME    = SL-14 R/B
OBJECT_ID      = 1987-038B
CENTER_NAME    = EARTH
REF_FRAME      = TEME
TIME_SYSTEM    = UTC
MEAN_ELEMENT_THEORY = SGP/SGP4

EPOCH          = 2026-02-22T03:20:59.834688
MEAN_MOTION    = 14.85353447
ECCENTRICITY   = .0018314
INCLINATION    = 82.5029
RA_OF_ASC_NODE = 311.4549
ARG_OF_PERICENTER = 212.4140
MEAN_ANOMALY   = 147.5953

EPHEMERIS_TYPE = 0
CLASSIFICATION_TYPE = U
NORAD_CAT_ID   = 17912
ELEMENT_SET_NO = 999
REV_AT_EPOCH   = 7692
BSTAR          = .40675E-4
MEAN_MOTION_DOT = .375E-5
MEAN_MOTION_DDOT = 0

CCSDS_OMM_VERS = 2.0
CREATION_DATE  = 
ORIGINATOR     = 

OBJECT_NAME    = COSMOS 1844
OBJECT_ID      = 1987-041A
CENTER_NAME    = EARTH
REF_FRAME      = TEME
TIME_SYSTEM    = UTC
MEAN_ELEMENT_THEORY = SGP/SGP4

EPOCH          = 2026-02-22T06:25:01.118784
MEAN_MOTION    = 14.14551793
ECCENTRICITY   = .0029242
INCLINATION    = 70.8985
RA_OF_ASC_NODE = 66.7057
ARG_OF_PERICENTER = 42.0600
MEAN_ANOMALY   = 318.2759

EPHEMERIS_TYPE = 0
CLASSIFICATION_TYPE = U
NORAD_CAT_ID   = 17973
ELEMENT_SET_NO = 999
REV_AT_EPOCH   = 140
BSTAR          = .10617E-3
MEAN_MOTION_DOT = .156E-5
MEAN_MOTION_DDOT = 0

CCSDS_OMM_VERS = 2.0
CREATION_DATE  = 
ORIGINATOR     = 

OBJECT_NAME    = SL-14 R/B
OBJECT_ID      = 1987-055B
CENTER_NAME    = EARTH
REF_FRAME      = TEME
TIME_SYSTEM    = UTC
MEAN_ELEMENT_THEORY = SGP/SGP4

EPOCH          = 2026-02-22T06:05:42.912096
MEAN_MOTION    = 14.85608267
ECCENTRICITY   = .0022177
INCLINATION    = 82.5017
RA_OF_ASC_NODE = 3.5751
ARG_OF_PERICENTER = 66.2509
MEAN_ANOMALY   = 294.1030

EPHEMERIS_TYPE = 0
CLASSIFICATION_TYPE = U
NORAD_CAT_ID   = 18153
ELEMENT_SET_NO = 999
REV_AT_EPOCH   = 6764
BSTAR          = .6334E-4
MEAN_MOTION_DOT = .575E-5
MEAN_MOTION_DDOT = 0

CCSDS_OMM_VERS = 2.0
CREATION_DATE  = 
ORIGINATOR     = 

OBJECT_NAME    = COSMOS 1867
OBJECT_ID      = 1987-060A
CENTER_NAME    = EARTH
REF_FRAME      = TEME
TIME_SYSTEM    = UTC
MEAN_ELEMENT_THEORY = SGP/SGP4

EPOCH          = 2026-02-22T06:45:04.235328
MEAN_MOTION    = 14.31500346
ECCENTRICITY   = .0014279
INCLINATION    = 65.0127
RA_OF_ASC_NODE = 349.8542
ARG_OF_PERICENTER = 277.8758
MEAN_ANOMALY   = 82.0705

EPHEMERIS_TYPE = 0
CLASSIFICATION_TYPE = U
NORAD_CAT_ID   = 18187
ELEMENT_SET_NO = 999
REV_AT_EPOCH   = 1773
BSTAR          = .22502E-4
MEAN_MOTION_DOT = -.4E-6
MEAN_MOTION_DDOT = 0

CCSDS_OMM_VERS = 2.0
CREATION_DATE  = 
ORIGINATOR     = 

OBJECT_NAME    = SL-14 R/B
OBJECT_ID      = 1988-001B
CENTER_NAME    = EARTH
REF_FRAME      = TEME
TIME_SYSTEM    = UTC
MEAN_ELEMENT_THEORY = SGP/SGP4

EPOCH          = 2026-02-21T12:10:25.148928
MEAN_MOTION    = 14.85505672
ECCENTRICITY   = .001672
INCLINATION    = 82.5120
RA_OF_ASC_NODE = 210.5785
ARG_OF_PERICENTER = 293.9076
MEAN_ANOMALY   = 66.0388

EPHEMERIS_TYPE = 0
CLASSIFICATION_TYPE = U
NORAD_CAT_ID   = 18749
ELEMENT_SET_NO = 999
REV_AT_EPOCH   = 3962
BSTAR          = .53239E-4
MEAN_MOTION_DOT = .484E-5
MEAN_MOTION_DDOT = 0

